ONEWEB-0572             
1 55151U 23004M   25321.50553965  .00000020  00000+0  18803-4 0  9992
2 55151  87.9142  47.9604 0001731  95.2538 264.8792 13.17651937139604
ONEWEB-0573             
1 55152U 23004N   25321.41889049  .00000051  00000+0  96463-4 0  9990
2 55152  87.9191  17.5564 0001833  72.0357 288.0975 13.18688898141782
ONEWEB-0588             
1 55153U 23004P   25321.18467176 -.00000056  00000+0 -17532-3 0  9994
2 55153  87.9215  17.5961 0001502  87.5737 272.5567 13.18685680141755
ONEWEB-0598             
1 55154U 23004Q   25321.51302376  .00000524  00000+0  14416-2 0  9997
2 55154  87.8859  63.2287 0002129  89.3099 270.8273 13.11415578138150
ONEWEB-0599             
1 55155U 23004R   25321.23890873 -.00000289  00000+0 -77741-3 0  9992
2 55155  87.9141  48.0163 0001904 101.3117 258.8229 13.17649082139575
ONEWEB-0614             
1 55156U 23004S   25321.35534650  .00000472  00000+0  12973-2 0  9991
2 55156  87.8862  63.2695 0001314 103.6938 256.4337 13.11415097138074
ONEWEB-0616             
1 55157U 23004T   25321.28110182 -.00000331  00000+0 -88588-3 0  9996
2 55157  87.9142  47.9985 0002645 114.3436 245.7972 13.17648652139795
ONEWEB-0617             
1 55158U 23004U   25321.34347087  .00000291  00000+0  78571-3 0  9994
2 55158  87.8863  63.2507 0001361  93.6936 266.4347 13.11416973138095
ONEWEB-0618             
1 55159U 23004V   25321.32052029  .00014669  00000+0  89650-3 0  9996
2 55159  86.9071 263.5163 0013558  13.0695 347.0891 15.10091107150250
ONEWEB-0619             
1 55160U 23004W   25321.31316907 -.00000002  00000+0 -37749-4 0  9996
2 55160  87.9141  47.9662 0002064 121.7713 238.3620 13.17651386139690
ONEWEB-0620             
1 55161U 23004X   25321.33838373  .00000110  00000+0  27413-3 0  9999
2 55161  87.8863  63.2714 0001669  93.9163 266.2156 13.11417565138066
ONEWEB-0621             
1 55162U 23004Y   25321.51811093  .00000410  00000+0  11208-2 0  9997
2 55162  87.8873  63.2038 0001475 109.0022 251.1266 13.11414532138061
ONEWEB-0622             
1 55163U 23004Z   25321.52318618  .00000082  00000+0  19624-3 0  9990
2 55163  87.8863  63.2144 0000976  86.7265 273.3974 13.11413654138059
ONEWEB-0623             
1 55164U 23004AA  25321.23218072  .00000092  00000+0  20451-3 0  9993
2 55164  87.9133  48.0341 0000964 113.1176 247.0058 13.17646281139674
ONEWEB-0624             
1 55165U 23004AB  25321.48566285 -.00001554  00000+0 -43239-2 0  9997
2 55165  87.8961  32.6856 0001645  98.6640 261.4675 13.12928797140298
ONEWEB-0625             
1 55166U 23004AC  25321.29800426  .00000293  00000+0  72239-3 0  9995
2 55166  87.9131  48.0164 0002006 106.5527 253.5825 13.17645928139673
ONEWEB-0626             
1 55167U 23004AD  25321.51566036 -.00000434  00000+0 -11510-2 0  9990
2 55167  87.9129  47.9724 0001951  88.1016 272.0339 13.17648853139707
