[{"OBJECT_NAME":"ONEWEB-0572","OBJECT_ID":"2023-004M","EPOCH":"2025-11-17T12:07:58.625760","MEAN_MOTION":13.17651937,"ECCENTRICITY":0.0001731,"INCLINATION":87.9142,"RA_OF_ASC_NODE":47.9604,"ARG_OF_PERICENTER":95.2538,"MEAN_ANOMALY":264.8792,"EPHEMERIS_TYPE":0,"CLASSIFICATION_TYPE":"U","NORAD_CAT_ID":55151,"ELEMENT_SET_NO":999,"REV_AT_EPOCH":13960,"BSTAR":1.8803e-5,"MEAN_MOTION_DOT":2.0e-7,"MEAN_MOTION_DDOT":0},{"OBJECT_NAME":"ONEWEB-0573","OBJECT_ID":"2023-004N","EPOCH":"2025-11-17T10:03:12.138336","MEAN_MOTION":13.18688898,"ECCENTRICITY":0.0001833,"INCLINATION":87.9191,"RA_OF_ASC_NODE":17.5564,"ARG_OF_PERICENTER":72.0357,"MEAN_ANOMALY":288.0975,"EPHEMERIS_TYPE":0,"CLASSIFICATION_TYPE":"U","NORAD_CAT_ID":55152,"ELEMENT_SET_NO":999,"REV_AT_EPOCH":14178,"BSTAR":9.6463e-5,"MEAN_MOTION_DOT":5.1e-7,"MEAN_MOTION_DDOT":0},{"OBJECT_NAME":"ONEWEB-0588","OBJECT_ID":"2023-004P","EPOCH":"2025-11-17T04:25:55.640064","MEAN_MOTION":13.1868568,"ECCENTRICITY":0.00015027,"INCLINATION":87.9215,"RA_OF_ASC_NODE":17.5961,"ARG_OF_PERICENTER":87.5737,"MEAN_ANOMALY":272.5567,"EPHEMERIS_TYPE":0,"CLASSIFICATION_TYPE":"U","NORAD_CAT_ID":55153,"ELEMENT_SET_NO":999,"REV_AT_EPOCH":14175,"BSTAR":-0.00017531681,"MEAN_MOTION_DOT":-5.6e-7,"MEAN_MOTION_DDOT":0},{"OBJECT_NAME":"ONEWEB-0598","OBJECT_ID":"2023-004Q","EPOCH":"2025-11-17T12:18:45.252864","MEAN_MOTION":13.11415578,"ECCENTRICITY":0.0002129,"INCLINATION":87.8859,"RA_OF_ASC_NODE":63.2287,"ARG_OF_PERICENTER":89.3099,"MEAN_ANOMALY":270.8273,"EPHEMERIS_TYPE":0,"CLASSIFICATION_TYPE":"U","NORAD_CAT_ID":55154,"ELEMENT_SET_NO":999,"REV_AT_EPOCH":13815,"BSTAR":0.0014416,"MEAN_MOTION_DOT":5.24e-6,"MEAN_MOTION_DDOT":0},{"OBJECT_NAME":"ONEWEB-0599","OBJECT_ID":"2023-004R","EPOCH":"2025-11-17T05:44:01.714272","MEAN_MOTION":13.17649082,"ECCENTRICITY":0.00019047,"INCLINATION":87.9141,"RA_OF_ASC_NODE":48.0163,"ARG_OF_PERICENTER":101.3117,"MEAN_ANOMALY":258.8229,"EPHEMERIS_TYPE":0,"CLASSIFICATION_TYPE":"U","NORAD_CAT_ID":55155,"ELEMENT_SET_NO":999,"REV_AT_EPOCH":13957,"BSTAR":-0.00077740585,"MEAN_MOTION_DOT":-2.89e-6,"MEAN_MOTION_DDOT":0},{"OBJECT_NAME":"ONEWEB-0614","OBJECT_ID":"2023-004S","EPOCH":"2025-11-17T08:31:41.937600","MEAN_MOTION":13.11415097,"ECCENTRICITY":0.0001314,"INCLINATION":87.8862,"RA_OF_ASC_NODE":63.2695,"ARG_OF_PERICENTER":103.6938,"MEAN_ANOMALY":256.4337,"EPHEMERIS_TYPE":0,"CLASSIFICATION_TYPE":"U","NORAD_CAT_ID":55156,"ELEMENT_SET_NO":999,"REV_AT_EPOCH":13807,"BSTAR":0.0012973,"MEAN_MOTION_DOT":4.72e-6,"MEAN_MOTION_DDOT":0},{"OBJECT_NAME":"ONEWEB-0616","OBJECT_ID":"2023-004T","EPOCH":"2025-11-17T06:44:47.197248","MEAN_MOTION":13.17648652,"ECCENTRICITY":0.00026456,"INCLINATION":87.9142,"RA_OF_ASC_NODE":47.9985,"ARG_OF_PERICENTER":114.3436,"MEAN_ANOMALY":245.7972,"EPHEMERIS_TYPE":0,"CLASSIFICATION_TYPE":"U","NORAD_CAT_ID":55157,"ELEMENT_SET_NO":999,"REV_AT_EPOCH":13979,"BSTAR":-0.00088588483,"MEAN_MOTION_DOT":-3.31e-6,"MEAN_MOTION_DDOT":0},{"OBJECT_NAME":"ONEWEB-0617","OBJECT_ID":"2023-004U","EPOCH":"2025-11-17T08:14:35.883168","MEAN_MOTION":13.11416973,"ECCENTRICITY":0.0001361,"INCLINATION":87.8863,"RA_OF_ASC_NODE":63.2507,"ARG_OF_PERICENTER":93.6936,"MEAN_ANOMALY":266.4347,"EPHEMERIS_TYPE":0,"CLASSIFICATION_TYPE":"U","NORAD_CAT_ID":55158,"ELEMENT_SET_NO":999,"REV_AT_EPOCH":13809,"BSTAR":0.00078571,"MEAN_MOTION_DOT":2.91e-6,"MEAN_MOTION_DDOT":0},{"OBJECT_NAME":"ONEWEB-0618","OBJECT_ID":"2023-004V","EPOCH":"2025-11-17T07:41:32.953056","MEAN_MOTION":15.10091107,"ECCENTRICITY":0.0013558,"INCLINATION":86.9071,"RA_OF_ASC_NODE":263.5163,"ARG_OF_PERICENTER":13.0695,"MEAN_ANOMALY":347.0891,"EPHEMERIS_TYPE":0,"CLASSIFICATION_TYPE":"U","NORAD_CAT_ID":55159,"ELEMENT_SET_NO":999,"REV_AT_EPOCH":15025,"BSTAR":0.0008965,"MEAN_MOTION_DOT":0.00014669,"MEAN_MOTION_DDOT":0},{"OBJECT_NAME":"ONEWEB-0619","OBJECT_ID":"2023-004W","EPOCH":"2025-11-17T07:30:57.807648","MEAN_MOTION":13.17651386,"ECCENTRICITY":0.0002064,"INCLINATION":87.9141,"RA_OF_ASC_NODE":47.9662,"ARG_OF_PERICENTER":121.7713,"MEAN_ANOMALY":238.362,"EPHEMERIS_TYPE":0,"CLASSIFICATION_TYPE":"U","NORAD_CAT_ID":55160,"ELEMENT_SET_NO":999,"REV_AT_EPOCH":13969,"BSTAR":-3.7749e-5,"MEAN_MOTION_DOT":-2.0e-8,"MEAN_MOTION_DDOT":0},{"OBJECT_NAME":"ONEWEB-0620","OBJECT_ID":"2023-004X","EPOCH":"2025-11-17T08:07:16.354272","MEAN_MOTION":13.11417565,"ECCENTRICITY":0.0001669,"INCLINATION":87.8863,"RA_OF_ASC_NODE":63.2714,"ARG_OF_PERICENTER":93.9163,"MEAN_ANOMALY":266.2156,"EPHEMERIS_TYPE":0,"CLASSIFICATION_TYPE":"U","NORAD_CAT_ID":55161,"ELEMENT_SET_NO":999,"REV_AT_EPOCH":13806,"BSTAR":0.00027413,"MEAN_MOTION_DOT":1.1e-6,"MEAN_MOTION_DDOT":0},{"OBJECT_NAME":"ONEWEB-0621","OBJECT_ID":"2023-004Y","EPOCH":"2025-11-17T12:26:04.784352","MEAN_MOTION":13.11414532,"ECCENTRICITY":0.0001475,"INCLINATION":87.8873,"RA_OF_ASC_NODE":63.2038,"ARG_OF_PERICENTER":109.0022,"MEAN_ANOMALY":251.1266,"EPHEMERIS_TYPE":0,"CLASSIFICATION_TYPE":"U","NORAD_CAT_ID":55162,"ELEMENT_SET_NO":999,"REV_AT_EPOCH":13806,"BSTAR":0.0011208,"MEAN_MOTION_DOT":4.1e-6,"MEAN_MOTION_DDOT":0},{"OBJECT_NAME":"ONEWEB-0622","OBJECT_ID":"2023-004Z","EPOCH":"2025-11-17T12:33:23.285952","MEAN_MOTION":13.11413654,"ECCENTRICITY":9.76e-5,"INCLINATION":87.8863,"RA_OF_ASC_NODE":63.2144,"ARG_OF_PERICENTER":86.7265,"MEAN_ANOMALY":273.3974,"EPHEMERIS_TYPE":0,"CLASSIFICATION_TYPE":"U","NORAD_CAT_ID":55163,"ELEMENT_SET_NO":999,"REV_AT_EPOCH":13805,"BSTAR":0.00019624,"MEAN_MOTION_DOT":8.2e-7,"MEAN_MOTION_DDOT":0},{"OBJECT_NAME":"ONEWEB-0623","OBJECT_ID":"2023-004AA","EPOCH":"2025-11-17T05:34:20.414208","MEAN_MOTION":13.17646281,"ECCENTRICITY":9.643e-5,"INCLINATION":87.9133,"RA_OF_ASC_NODE":48.0341,"ARG_OF_PERICENTER":113.1176,"MEAN_ANOMALY":247.0058,"EPHEMERIS_TYPE":0,"CLASSIFICATION_TYPE":"U","NORAD_CAT_ID":55164,"ELEMENT_SET_NO":999,"REV_AT_EPOCH":13967,"BSTAR":0.00020451053,"MEAN_MOTION_DOT":9.2e-7,"MEAN_MOTION_DDOT":0},{"OBJECT_NAME":"ONEWEB-0624","OBJECT_ID":"2023-004AB","EPOCH":"2025-11-17T11:39:21.270240","MEAN_MOTION":13.12928797,"ECCENTRICITY":0.0001645,"INCLINATION":87.8961,"RA_OF_ASC_NODE":32.6856,"ARG_OF_PERICENTER":98.664,"MEAN_ANOMALY":261.4675,"EPHEMERIS_TYPE":0,"CLASSIFICATION_TYPE":"U","NORAD_CAT_ID":55165,"ELEMENT_SET_NO":999,"REV_AT_EPOCH":14029,"BSTAR":-0.0043239,"MEAN_MOTION_DOT":-1.554e-5,"MEAN_MOTION_DDOT":0},{"OBJECT_NAME":"ONEWEB-0625","OBJECT_ID":"2023-004AC","EPOCH":"2025-11-17T07:09:07.568064","MEAN_MOTION":13.17645928,"ECCENTRICITY":0.00020066,"INCLINATION":87.9131,"RA_OF_ASC_NODE":48.0164,"ARG_OF_PERICENTER":106.5527,"MEAN_ANOMALY":253.5825,"EPHEMERIS_TYPE":0,"CLASSIFICATION_TYPE":"U","NORAD_CAT_ID":55166,"ELEMENT_SET_NO":999,"REV_AT_EPOCH":13967,"BSTAR":0.0007223878,"MEAN_MOTION_DOT":2.93e-6,"MEAN_MOTION_DDOT":0},{"OBJECT_NAME":"ONEWEB-0626","OBJECT_ID":"2023-004AD","EPOCH":"2025-11-17T12:22:33.055104","MEAN_MOTION":13.17648853,"ECCENTRICITY":0.0001951,"INCLINATION":87.9129,"RA_OF_ASC_NODE":47.9724,"ARG_OF_PERICENTER":88.1016,"MEAN_ANOMALY":272.0339,"EPHEMERIS_TYPE":0,"CLASSIFICATION_TYPE":"U","NORAD_CAT_ID":55167,"ELEMENT_SET_NO":999,"REV_AT_EPOCH":13970,"BSTAR":-0.001151,"MEAN_MOTION_DOT":-4.34e-6,"MEAN_MOTION_DDOT":0}]
